{
  "type": "FeatureCollection",
  "features": [
    {
      "type": "Feature",
      "properties": {
        "norad_id": 33822,
        "name": "COSMOS 2251 DEB",
        "group": "cosmos-2251-debris",
        "lat": 25.491805072575026,
        "lon": 15.57372754886163,
        "alt_km": 860.9720698190258,
        "timestamp": "2025-12-07T05:38:10.296248+00:00",
        "meta_object_name": "COSMOS 2251 DEB",
        "meta_object_id": "1993-036BP",
        "meta_epoch": "2025-12-06T02:29:09.799296",
        "meta_mean_motion": 14.13021705,
        "meta_eccentricity": 0.01538119,
        "meta_inclination": 74.0696,
        "meta_ra_of_asc_node": 205.3967,
        "meta_arg_of_pericenter": 253.2529,
        "meta_mean_anomaly": 269.501,
        "meta_ephemeris_type": 0,
        "meta_classification_type": "U",
        "meta_norad_cat_id": 33822,
        "meta_element_set_no": 999,
        "meta_rev_at_epoch": 85960,
        "meta_bstar": 0.0020952539,
        "meta_mean_motion_dot": 4.35e-05,
        "meta_mean_motion_ddot": 0,
        "tle_line1": "1 33822U 93036BP  25340.10358564  .00004350  00000+0  20953-2 0  9997",
        "tle_line2": "2 33822  74.0696 205.3967 0153811 253.2529 269.5010 14.13021705859606"
      },
      "geometry": {
        "type": "Point",
        "coordinates": [
          15.57372754886163,
          25.491805072575026
        ]
      }
    },
    {
      "type": "Feature",
      "properties": {
        "norad_id": 33823,
        "name": "COSMOS 2251 DEB",
        "group": "cosmos-2251-debris",
        "lat": -68.18679497065341,
        "lon": 25.524126991893418,
        "alt_km": 771.5682991694239,
        "timestamp": "2025-12-07T05:38:10.296258+00:00",
        "meta_object_name": "COSMOS 2251 DEB",
        "meta_object_id": "1993-036BQ",
        "meta_epoch": "2025-12-06T15:00:45.948384",
        "meta_mean_motion": 13.98927565,
        "meta_eccentricity": 0.02092497,
        "meta_inclination": 73.8087,
        "meta_ra_of_asc_node": 160.0457,
        "meta_arg_of_pericenter": 286.1868,
        "meta_mean_anomaly": 142.7534,
        "meta_ephemeris_type": 0,
        "meta_classification_type": "U",
        "meta_norad_cat_id": 33823,
        "meta_element_set_no": 999,
        "meta_rev_at_epoch": 85524,
        "meta_bstar": 0.001267083,
        "meta_mean_motion_dot": 2.179e-05,
        "meta_mean_motion_ddot": 0,
        "tle_line1": "1 33823U 93036BQ  25340.62553181  .00002179  00000+0  12671-2 0  9992",
        "tle_line2": "2 33823  73.8087 160.0457 0209249 286.1868 142.7534 13.98927565855247"
      },
      "geometry": {
        "type": "Point",
        "coordinates": [
          25.524126991893418,
          -68.18679497065341
        ]
      }
    },
    {
      "type": "Feature",
      "properties": {
        "norad_id": 33825,
        "name": "COSMOS 2251 DEB",
        "group": "cosmos-2251-debris",
        "lat": -50.71948800968912,
        "lon": 17.938621915502214,
        "alt_km": 639.0257227613356,
        "timestamp": "2025-12-07T05:38:10.296275+00:00",
        "meta_object_name": "COSMOS 2251 DEB",
        "meta_object_id": "1993-036BS",
        "meta_epoch": "2025-12-06T14:07:05.236320",
        "meta_mean_motion": 14.6968344,
        "meta_eccentricity": 0.00842363,
        "meta_inclination": 73.9856,
        "meta_ra_of_asc_node": 39.7524,
        "meta_arg_of_pericenter": 8.3347,
        "meta_mean_anomaly": 119.3376,
        "meta_ephemeris_type": 0,
        "meta_classification_type": "U",
        "meta_norad_cat_id": 33825,
        "meta_element_set_no": 999,
        "meta_rev_at_epoch": 88789,
        "meta_bstar": 0.0012748956,
        "meta_mean_motion_dot": 7.992e-05,
        "meta_mean_motion_ddot": 0,
        "tle_line1": "1 33825U 93036BS  25340.58825505  .00007992  00000+0  12749-2 0  9995",
        "tle_line2": "2 33825  73.9856  39.7524 0084236   8.3347 119.3376 14.69683440887894"
      },
      "geometry": {
        "type": "Point",
        "coordinates": [
          17.938621915502214,
          -50.71948800968912
        ]
      }
    },
    {
      "type": "Feature",
      "properties": {
        "norad_id": 33826,
        "name": "COSMOS 2251 DEB",
        "group": "cosmos-2251-debris",
        "lat": -14.87937569146061,
        "lon": -115.42093668795508,
        "alt_km": 723.0871301512852,
        "timestamp": "2025-12-07T05:38:10.296288+00:00",
        "meta_object_name": "COSMOS 2251 DEB",
        "meta_object_id": "1993-036BT",
        "meta_epoch": "2025-12-06T16:03:48.762432",
        "meta_mean_motion": 14.51637875,
        "meta_eccentricity": 0.00838854,
        "meta_inclination": 74.0658,
        "meta_ra_of_asc_node": 61.2883,
        "meta_arg_of_pericenter": 107.5756,
        "meta_mean_anomaly": 12.6501,
        "meta_ephemeris_type": 0,
        "meta_classification_type": "U",
        "meta_norad_cat_id": 33826,
        "meta_element_set_no": 999,
        "meta_rev_at_epoch": 87681,
        "meta_bstar": 0.0022567567,
        "meta_mean_motion_dot": 9.456e-05,
        "meta_mean_motion_ddot": 0,
        "tle_line1": "1 33826U 93036BT  25340.66931438  .00009456  00000+0  22568-2 0  9995",
        "tle_line2": "2 33826  74.0658  61.2883 0083885 107.5756  12.6501 14.51637875876817"
      },
      "geometry": {
        "type": "Point",
        "coordinates": [
          -115.42093668795508,
          -14.87937569146061
        ]
      }
    },
    {
      "type": "Feature",
      "properties": {
        "norad_id": 33828,
        "name": "COSMOS 2251 DEB",
        "group": "cosmos-2251-debris",
        "lat": -53.28380014641767,
        "lon": 90.87806620538232,
        "alt_km": 749.2881176761466,
        "timestamp": "2025-12-07T05:38:10.296298+00:00",
        "meta_object_name": "COSMOS 2251 DEB",
        "meta_object_id": "1993-036BV",
        "meta_epoch": "2025-12-06T12:44:16.375776",
        "meta_mean_motion": 14.44301889,
        "meta_eccentricity": 0.00293864,
        "meta_inclination": 74.0477,
        "meta_ra_of_asc_node": 249.6352,
        "meta_arg_of_pericenter": 323.5396,
        "meta_mean_anomaly": 213.7522,
        "meta_ephemeris_type": 0,
        "meta_classification_type": "U",
        "meta_norad_cat_id": 33828,
        "meta_element_set_no": 999,
        "meta_rev_at_epoch": 88223,
        "meta_bstar": 0.0010308362,
        "meta_mean_motion_dot": 3.539e-05,
        "meta_mean_motion_ddot": 0,
        "tle_line1": "1 33828U 93036BV  25340.53074509  .00003539  00000+0  10308-2 0  9995",
        "tle_line2": "2 33828  74.0477 249.6352 0029386 323.5396 213.7522 14.44301889882232"
      },
      "geometry": {
        "type": "Point",
        "coordinates": [
          90.87806620538232,
          -53.28380014641767
        ]
      }
    },
    {
      "type": "Feature",
      "properties": {
        "norad_id": 33830,
        "name": "COSMOS 2251 DEB",
        "group": "cosmos-2251-debris",
        "lat": -7.500885336706047,
        "lon": 63.31875354414203,
        "alt_km": 672.5894832337935,
        "timestamp": "2025-12-07T05:38:10.296308+00:00",
        "meta_object_name": "COSMOS 2251 DEB",
        "meta_object_id": "1993-036BX",
        "meta_epoch": "2025-12-06T05:07:47.276832",
        "meta_mean_motion": 14.76769389,
        "meta_eccentricity": 0.00422709,
        "meta_inclination": 74.0331,
        "meta_ra_of_asc_node": 243.1589,
        "meta_arg_of_pericenter": 4.6818,
        "meta_mean_anomaly": 156.73,
        "meta_ephemeris_type": 0,
        "meta_classification_type": "U",
        "meta_norad_cat_id": 33830,
        "meta_element_set_no": 999,
        "meta_rev_at_epoch": 89375,
        "meta_bstar": 0.0015354029,
        "meta_mean_motion_dot": 0.00010908,
        "meta_mean_motion_ddot": 0,
        "tle_line1": "1 33830U 93036BX  25340.21374163  .00010908  00000+0  15354-2 0  9996",
        "tle_line2": "2 33830  74.0331 243.1589 0042270   4.6818 156.7300 14.76769389893755"
      },
      "geometry": {
        "type": "Point",
        "coordinates": [
          63.31875354414203,
          -7.500885336706047
        ]
      }
    },
    {
      "type": "Feature",
      "properties": {
        "norad_id": 33832,
        "name": "COSMOS 2251 DEB",
        "group": "cosmos-2251-debris",
        "lat": -18.799510903522286,
        "lon": 46.06322700277289,
        "alt_km": 685.3526272477311,
        "timestamp": "2025-12-07T05:38:10.296318+00:00",
        "meta_object_name": "COSMOS 2251 DEB",
        "meta_object_id": "1993-036BZ",
        "meta_epoch": "2025-12-06T03:06:47.682720",
        "meta_mean_motion": 14.6051989,
        "meta_eccentricity": 0.00254007,
        "meta_inclination": 74.0544,
        "meta_ra_of_asc_node": 222.5852,
        "meta_arg_of_pericenter": 255.0003,
        "meta_mean_anomaly": 256.4559,
        "meta_ephemeris_type": 0,
        "meta_classification_type": "U",
        "meta_norad_cat_id": 33832,
        "meta_element_set_no": 999,
        "meta_rev_at_epoch": 88328,
        "meta_bstar": 0.0020989252,
        "meta_mean_motion_dot": 0.0001022,
        "meta_mean_motion_ddot": 0,
        "tle_line1": "1 33832U 93036BZ  25340.12971855  .00010220  00000+0  20989-2 0  9996",
        "tle_line2": "2 33832  74.0544 222.5852 0025400 255.0003 256.4559 14.60519890883285"
      },
      "geometry": {
        "type": "Point",
        "coordinates": [
          46.06322700277289,
          -18.799510903522286
        ]
      }
    }
  ]
}